      2.10          N: GNSS NAV DATA                        RINEX VERSION / TYPE
fic2rin                                 12/13/2020 00:17:30 PGM / RUN BY / DATE
                                                            END OF HEADER
 3 20 12 12 10  0  0.0-2.776691690087e-05-1.000444171950e-11 0.000000000000e+00
    6.800000000000e+01 2.696875000000e+01 4.656622538449e-09 2.325255345453e+00
    1.305714249611e-06 3.252012538724e-03 7.718801498413e-06 5.153685373306e+03
    5.544000000000e+05-2.980232238770e-08 6.043924724696e-01-4.656612873077e-08
    9.676785387353e-01 2.322812500000e+02 8.947270156230e-01-7.981403886080e-09
    5.646663777640e-10 1.000000000000e+00 2.135000000000e+03 0.000000000000e+00
    2.400000000000e+00 0.000000000000e+00 1.862645149231e-09 6.800000000000e+01
    5.472000000000e+05 4.000000000000e+00
 7 20 12 12 10  0  0.0-4.323115572333e-04-7.389644451905e-12 0.000000000000e+00
    4.600000000000e+01 7.990625000000e+01 4.180531278765e-09 2.856798375771e+00
    3.952533006668e-06 1.426593505312e-02 1.331418752670e-05 5.153632266998e+03
    5.544000000000e+05 2.235174179077e-08 2.708243306301e+00-1.806765794754e-07
    9.525060330938e-01 1.153750000000e+02-2.358088040152e+00-7.561743548399e-09
   -3.128701751558e-10 1.000000000000e+00 2.135000000000e+03 0.000000000000e+00
    2.400000000000e+00 0.000000000000e+00-1.117587089539e-08 4.600000000000e+01
    5.472000000000e+05 4.000000000000e+00
 6 20 12 12 10  0  0.0-3.776513040066e-06-7.958078640513e-13 0.000000000000e+00
    9.400000000000e+01-1.079062500000e+02 3.793372294897e-09-2.348041492667e+00
   -5.448237061501e-06 2.101949765347e-03 1.242384314537e-05 5.153677684784e+03
    5.544000000000e+05 0.000000000000e+00-4.423235787468e-01 5.215406417847e-08
    9.823296413554e-01 1.509375000000e+02-1.154292015981e+00-7.557457655589e-09
    1.703642392115e-10 1.000000000000e+00 2.135000000000e+03 0.000000000000e+00
    2.400000000000e+00 0.000000000000e+00 4.190951585770e-09 9.400000000000e+01
    5.472000000000e+05 4.000000000000e+00
 4 20 12 12 10  0  0.0-1.636133529246e-04-3.410605131648e-12 0.000000000000e+00
    6.600000000000e+01-2.918750000000e+01 4.849130557180e-09-1.041860416914e+00
   -1.622363924980e-06 9.633159497753e-04 6.964430212975e-06 5.153596727371e+03
    5.544000000000e+05 9.313225746155e-09 1.684463143668e+00-7.450580596924e-09
    9.596942068873e-01 2.450000000000e+02-3.071931729167e+00-8.109980670390e-09
   -5.653806932324e-10 1.000000000000e+00 2.135000000000e+03 0.000000000000e+00
    2.400000000000e+00 0.000000000000e+00-4.190951585770e-09 8.340000000000e+02
    5.472000000000e+05 4.000000000000e+00
22 20 12 12 10  0  0.0-7.164785638452e-04 5.911715561524e-12 0.000000000000e+00
    7.000000000000e+00 3.484375000000e+01 5.419868616426e-09-1.592339539310e+00
    1.823529601097e-06 6.769731407985e-03 8.141621947289e-06 5.153652006149e+03
    5.544000000000e+05-1.732259988785e-07 5.108316242447e-01 7.450580596924e-08
    9.330539493279e-01 2.080625000000e+02-1.065772639468e+00-8.474281559270e-09
    6.107397254753e-10 1.000000000000e+00 2.135000000000e+03 0.000000000000e+00
    2.400000000000e+00 0.000000000000e+00-1.816079020500e-08 7.000000000000e+00
    5.472000000000e+05 4.000000000000e+00
26 20 12 12 10  0  0.0 1.318147405982e-05 5.911715561524e-12 0.000000000000e+00
    2.600000000000e+01 1.351875000000e+02 4.880203280055e-09 1.308084263417e+00
    7.117167115211e-06 5.447842413560e-03 4.256144165993e-06 5.153728412628e+03
    5.544000000000e+05-9.313225746155e-09-2.577069447412e+00 9.313225746155e-08
    9.443424016172e-01 2.874375000000e+02 2.215428012669e-01-8.502497020272e-09
    2.403671551140e-10 1.000000000000e+00 2.135000000000e+03 0.000000000000e+00
    2.400000000000e+00 0.000000000000e+00 6.984919309616e-09 2.600000000000e+01
    5.472000000000e+05 4.000000000000e+00
21 20 12 12 10  0  0.0 7.687648758292e-05 3.524291969370e-12 0.000000000000e+00
    2.400000000000e+01-9.321875000000e+01 4.517331022112e-09-3.093260798271e-01
   -5.058944225311e-06 2.401221881155e-02 1.202337443829e-05 5.153750143051e+03
    5.544000000000e+05-4.321336746216e-07-5.132846072442e-01-1.378357410431e-07
    9.556907399211e-01 1.527812500000e+02-1.231776894006e+00-8.338561620276e-09
    2.125088518467e-10 1.000000000000e+00 2.135000000000e+03 0.000000000000e+00
    2.400000000000e+00 0.000000000000e+00-1.024454832077e-08 2.400000000000e+01
    5.472000000000e+05 4.000000000000e+00
13 20 12 12 10  0  0.0 7.421430200338e-05 3.979039320257e-12 0.000000000000e+00
    2.600000000000e+01-3.581250000000e+01 4.708767567641e-09-1.247048257800e+00
   -1.916661858559e-06 4.879479994997e-03 7.333233952522e-06 5.153676052094e+03
    5.544000000000e+05 1.005828380585e-07 1.781016064594e+00 6.332993507385e-08
    9.674716440830e-01 2.415312500000e+02 1.048068717938e+00-8.082479524857e-09
   -6.582417041234e-10 1.000000000000e+00 2.135000000000e+03 0.000000000000e+00
    2.400000000000e+00 0.000000000000e+00-1.164153218269e-08 2.600000000000e+01
    5.472000000000e+05 4.000000000000e+00
16 20 12 12 10  0  0.0-2.492535859346e-04-5.456968210638e-12 0.000000000000e+00
    6.300000000000e+01 1.079375000000e+02 4.306965116671e-09 3.302819029384e-01
    5.789101123810e-06 1.186606939882e-02 2.995133399963e-06 5.153618276596e+03
    5.544000000000e+05 4.842877388000e-08-2.447868452049e+00 2.384185791016e-07
    9.760890420265e-01 3.290312500000e+02 6.321115004498e-01-8.371420131822e-09
    2.925121843066e-10 1.000000000000e+00 2.135000000000e+03 0.000000000000e+00
    2.400000000000e+00 0.000000000000e+00-1.071020960808e-08 6.300000000000e+01
    5.472000000000e+05 4.000000000000e+00
 9 20 12 12 10  0  0.0-3.004618920386e-04-4.433786671143e-12 0.000000000000e+00
    1.020000000000e+02-2.884375000000e+01 5.104141179396e-09-1.428747370434e-01
   -1.585111021996e-06 2.029265626334e-03 6.472691893578e-06 5.153593814850e+03
    5.544000000000e+05-1.490116119385e-08 1.634942189036e+00 2.235174179077e-08
    9.524821743629e-01 2.494062500000e+02 1.771686927746e+00-8.295345534438e-09
   -5.164500836475e-10 1.000000000000e+00 2.135000000000e+03 0.000000000000e+00
    2.400000000000e+00 0.000000000000e+00 1.396983861923e-09 1.020000000000e+02
    5.472000000000e+05 4.000000000000e+00
 8 20 12 12 10  0  0.0-2.606771886349e-06-1.364242052659e-12 0.000000000000e+00
    5.700000000000e+01-8.634375000000e+01 4.652693803372e-09-4.921718452072e-01
   -4.529953002930e-06 5.875806207769e-03 2.369284629822e-06 5.153758872986e+03
    5.544000000000e+05 3.911554813385e-08-1.506624172990e+00-4.284083843231e-08
    9.683316497343e-01 3.342187500000e+02-6.027095212708e-02-8.502497020272e-09
   -2.171519023912e-10 1.000000000000e+00 2.135000000000e+03 0.000000000000e+00
    2.400000000000e+00 0.000000000000e+00 5.122274160385e-09 5.700000000000e+01
    5.472000000000e+05 4.000000000000e+00
15 20 12 12 10  0  0.0-1.838211901486e-04 2.614797267597e-12 0.000000000000e+00
    9.000000000000e+01-2.912500000000e+01 5.710595012061e-09-1.548719023369e+00
   -1.417472958565e-06 1.309405663051e-02 4.716217517853e-06 5.153775882721e+03
    5.544000000000e+05 3.054738044739e-07 1.540208803193e+00-7.450580596924e-09
    9.280833223499e-01 2.682812500000e+02 9.575179801930e-01-8.554284891730e-09
   -3.407284784231e-10 1.000000000000e+00 2.135000000000e+03 0.000000000000e+00
    2.400000000000e+00 0.000000000000e+00-1.071020960808e-08 9.000000000000e+01
    5.472000000000e+05 4.000000000000e+00
31 20 12 12 10  0  0.0-8.710520341992e-05-2.387423592154e-12 0.000000000000e+00
    7.200000000000e+01 6.062500000000e+01 4.203389373754e-09 2.448784816620e+00
    3.116205334663e-06 9.948472492397e-03 1.260824501514e-05 5.153717210770e+03
    5.544000000000e+05-1.341104507446e-07 2.724608909412e+00 5.587935447693e-09
    9.568883022158e-01 1.378750000000e+02 2.145802123671e-01-7.730679156674e-09
   -3.639437311458e-10 1.000000000000e+00 2.135000000000e+03 0.000000000000e+00
    2.400000000000e+00 0.000000000000e+00-1.303851604462e-08 7.200000000000e+01
    5.472000000000e+05 4.000000000000e+00
30 20 12 12 10  0  0.0-3.510126844049e-04-6.366462912410e-12 0.000000000000e+00
    3.900000000000e+01 7.615625000000e+01 4.674123267424e-09 2.857774474212e+00
    3.855675458908e-06 4.716328694485e-03 1.346692442894e-05 5.153781282425e+03
    5.544000000000e+05-3.911554813385e-08 2.727915857674e+00-6.146728992462e-08
    9.377721512542e-01 1.056875000000e+02-2.841460408243e+00-7.944259481723e-09
   -3.217991185107e-10 1.000000000000e+00 2.135000000000e+03 0.000000000000e+00
    2.400000000000e+00 0.000000000000e+00 3.725290298462e-09 3.900000000000e+01
    5.472000000000e+05 4.000000000000e+00
29 20 12 12 10  0  0.0-2.544880844653e-04-7.503331289627e-12 0.000000000000e+00
    8.500000000000e+01-9.471875000000e+01 4.215889894451e-09-5.563383916471e-01
   -5.170702934265e-06 1.458587124944e-03 2.494081854820e-06 5.153712028503e+03
    5.544000000000e+05 1.676380634308e-08-1.418895298890e+00-3.166496753693e-08
    9.846644805537e-01 3.438125000000e+02 2.247413723151e+00-8.224271145333e-09
   -2.017941198208e-10 1.000000000000e+00 2.135000000000e+03 0.000000000000e+00
    3.400000000000e+00 0.000000000000e+00-1.024454832077e-08 8.500000000000e+01
    5.472000000000e+05 4.000000000000e+00
27 20 12 12 10  0  0.0-3.318162634969e-05-8.071765478235e-12 0.000000000000e+00
    9.400000000000e+01-8.903125000000e+01 4.495187242592e-09-5.753148207658e-01
   -4.550442099571e-06 8.657583617605e-03 2.633780241013e-06 5.153671743393e+03
    5.544000000000e+05 6.891787052155e-08-1.490722009161e+00 9.499490261078e-08
    9.768376201335e-01 3.356250000000e+02 5.662598201373e-01-8.422850845546e-09
   -2.396528396456e-10 1.000000000000e+00 2.135000000000e+03 0.000000000000e+00
    2.400000000000e+00 0.000000000000e+00 1.862645149231e-09 9.400000000000e+01
    5.472000000000e+05 4.000000000000e+00
